{"type": "FeatureCollection", "features": [ {"type": "Feature", "properties": {"norad_id": 31841, "name": "FENGYUN 1C DEB", "group": "fengyun-1c-debris", "lat": -0.4472145904490337, "lon": -31.32936210361713, "alt_km": 1067.5579020836321, "timestamp": "2025-12-05T11:32:56.302886+00:00", "meta": {"OBJECT_NAME": "FENGYUN 1C DEB", "OBJECT_ID": "1999-025CJF", "EPOCH": "2025-11-17T05:28:34.898880", "MEAN_MOTION": 14.03357121, "ECCENTRICITY": 0.0309007, "INCLINATION": 98.418, "RA_OF_ASC_NODE": 131.8088, "ARG_OF_PERICENTER": 17.7285, "MEAN_ANOMALY": 155.1599, "EPHEMERIS_TYPE": 0, "CLASSIFICATION_TYPE": "U", "NORAD_CAT_ID": 31841, "ELEMENT_SET_NO": 999, "REV_AT_EPOCH": 58981, "BSTAR": 0.0018537015, "MEAN_MOTION_DOT": 4.385e-05, "MEAN_MOTION_DDOT": 0}, "tle": {"line1": "1 31841U 99025CJF 25321.22818170  .00004385  00000+0  18537-2 0  9999", "line2": "2 31841  98.4180 131.8088 0309007  17.7285 155.1599 14.03357121589810"}}, "geometry": {"type": "Point", "coordinates": [-31.32936210361713, -0.4472145904490337]}}, {"type": "Feature", "properties": {"norad_id": 31843, "name": "FENGYUN 1C DEB", "group": "fengyun-1c-debris", "lat": 24.35493645200323, "lon": -83.43937486464986, "alt_km": 661.2700533772113, "timestamp": "2025-12-05T11:32:56.302896+00:00", "meta": {"OBJECT_NAME": "FENGYUN 1C DEB", "OBJECT_ID": "1999-025CJH", "EPOCH": "2025-12-02T15:01:05.389248", "MEAN_MOTION": 13.33462656, "ECCENTRICITY": 0.06419114, "INCLINATION": 99.2813, "RA_OF_ASC_NODE": 278.1993, "ARG_OF_PERICENTER": 18.9524, "MEAN_ANOMALY": 343.4355, "EPHEMERIS_TYPE": 0, "CLASSIFICATION_TYPE": "U", "NORAD_CAT_ID": 31843, "ELEMENT_SET_NO": 999, "REV_AT_EPOCH": 64561, "BSTAR": 0.0084044243, "MEAN_MOTION_DOT": 0.00013435, "MEAN_MOTION_DDOT": 0}, "tle": {"line1": "1 31843U 99025CJH 25336.62575682  .00013435  00000+0  84044-2 0  9991", "line2": "2 31843  99.2813 278.1993 0641911  18.9524 343.4355 13.33462656645611"}}, "geometry": {"type": "Point", "coordinates": [-83.43937486464986, 24.35493645200323]}}, {"type": "Feature", "properties": {"norad_id": 31844, "name": "FENGYUN 1C DEB", "group": "fengyun-1c-debris", "lat": 39.35940145100093, "lon": -41.609561815631814, "alt_km": 758.0577345496777, "timestamp": "2025-12-05T11:32:56.302906+00:00", "meta": {"OBJECT_NAME": "FENGYUN 1C DEB", "OBJECT_ID": "1999-025CJJ", "EPOCH": "2025-12-03T05:14:22.488576", "MEAN_MOTION": 14.19683273, "ECCENTRICITY": 0.0103744, "INCLINATION": 100.3014, "RA_OF_ASC_NODE": 324.3406, "ARG_OF_PERICENTER": 16.8564, "MEAN_ANOMALY": 343.6013, "EPHEMERIS_TYPE": 0, "CLASSIFICATION_TYPE": "U", "NORAD_CAT_ID": 31844, "ELEMENT_SET_NO": 999, "REV_AT_EPOCH": 95197, "BSTAR": 0.0010371, "MEAN_MOTION_DOT": 2.257e-05, "MEAN_MOTION_DDOT": 0}, "tle": {"line1": "1 31844U 99025CJJ 25337.21831584  .00002257  00000+0  10371-2 0  9996", "line2": "2 31844 100.3014 324.3406 0103744  16.8564 343.6013 14.19683273951977"}}, "geometry": {"type": "Point", "coordinates": [-41.609561815631814, 39.35940145100093]}}, {"type": "Feature", "properties": {"norad_id": 31850, "name": "FENGYUN 1C DEB", "group": "fengyun-1c-debris", "lat": -23.289144582062605, "lon": -160.81184280846068, "alt_km": 477.5803754344679, "timestamp": "2025-12-05T11:32:56.302917+00:00", "meta": {"OBJECT_NAME": "FENGYUN 1C DEB", "OBJECT_ID": "1999-025CJQ", "EPOCH": "2025-12-01T20:22:02.943552", "MEAN_MOTION": 15.30101439, "ECCENTRICITY": 0.00812319, "INCLINATION": 98.576, "RA_OF_ASC_NODE": 18.7204, "ARG_OF_PERICENTER": 126.804, "MEAN_ANOMALY": 234.0686, "EPHEMERIS_TYPE": 0, "CLASSIFICATION_TYPE": "U", "NORAD_CAT_ID": 31850, "ELEMENT_SET_NO": 999, "REV_AT_EPOCH": 65662, "BSTAR": 0.0030371195, "MEAN_MOTION_DOT": 0.00098889, "MEAN_MOTION_DDOT": 0}, "tle": {"line1": "1 31850U 99025CJQ 25335.84864518  .00098889  00000+0  30371-2 0  9991", "line2": "2 31850  98.5760  18.7204 0081231 126.8040 234.0686 15.30101439656623"}}, "geometry": {"type": "Point", "coordinates": [-160.81184280846068, -23.289144582062605]}}, {"type": "Feature", "properties": {"norad_id": 31854, "name": "FENGYUN 1C DEB", "group": "fengyun-1c-debris", "lat": 62.641971966591804, "lon": -34.633795580748775, "alt_km": 883.0555958669347, "timestamp": "2025-12-05T11:32:56.302927+00:00", "meta": {"OBJECT_NAME": "FENGYUN 1C DEB", "OBJECT_ID": "1999-025CJU", "EPOCH": "2025-12-03T06:11:08.380032", "MEAN_MOTION": 14.03057185, "ECCENTRICITY": 0.0072008, "INCLINATION": 98.8476, "RA_OF_ASC_NODE": 340.7241, "ARG_OF_PERICENTER": 167.2323, "MEAN_ANOMALY": 193.0688, "EPHEMERIS_TYPE": 0, "CLASSIFICATION_TYPE": "U", "NORAD_CAT_ID": 31854, "ELEMENT_SET_NO": 999, "REV_AT_EPOCH": 69139, "BSTAR": 0.00034596, "MEAN_MOTION_DOT": 5.08e-06, "MEAN_MOTION_DDOT": 0}, "tle": {"line1": "1 31854U 99025CJU 25337.25773588  .00000508  00000+0  34596-3 0  9993", "line2": "2 31854  98.8476 340.7241 0072008 167.2323 193.0688 14.03057185691394"}}, "geometry": {"type": "Point", "coordinates": [-34.633795580748775, 62.641971966591804]}}, {"type": "Feature", "properties": {"norad_id": 31857, "name": "FENGYUN 1C DEB", "group": "fengyun-1c-debris", "lat": -1.475820856386218, "lon": -168.47112491170603, "alt_km": 1144.680037897374, "timestamp": "2025-12-05T11:32:56.302937+00:00", "meta": {"OBJECT_NAME": "FENGYUN 1C DEB", "OBJECT_ID": "1999-025CJX", "EPOCH": "2025-12-01T20:13:56.835552", "MEAN_MOTION": 13.61858254, "ECCENTRICITY": 0.03084927, "INCLINATION": 96.1896, "RA_OF_ASC_NODE": 9.3724, "ARG_OF_PERICENTER": 312.5702, "MEAN_ANOMALY": 44.9786, "EPHEMERIS_TYPE": 0, "CLASSIFICATION_TYPE": "U", "NORAD_CAT_ID": 31857, "ELEMENT_SET_NO": 999, "REV_AT_EPOCH": 61481, "BSTAR": 0.0021184073, "MEAN_MOTION_DOT": 2.215e-05, "MEAN_MOTION_DDOT": 0}, "tle": {"line1": "1 31857U 99025CJX 25335.84301893  .00002215  00000+0  21184-2 0  9990", "line2": "2 31857  96.1896   9.3724 0308492 312.5702  44.9786 13.61858254614817"}}, "geometry": {"type": "Point", "coordinates": [-168.47112491170603, -1.475820856386218]}}, {"type": "Feature", "properties": {"norad_id": 31861, "name": "FENGYUN 1C DEB", "group": "fengyun-1c-debris", "lat": -71.06481166539749, "lon": -48.99486796754317, "alt_km": 840.1641074486724, "timestamp": "2025-12-05T11:32:56.302947+00:00", "meta": {"OBJECT_NAME": "FENGYUN 1C DEB", "OBJECT_ID": "1999-025CKB", "EPOCH": "2025-11-30T18:20:57.621120", "MEAN_MOTION": 13.30200627, "ECCENTRICITY": 0.04966148, "INCLINATION": 102.3423, "RA_OF_ASC_NODE": 165.0071, "ARG_OF_PERICENTER": 230.9853, "MEAN_ANOMALY": 124.6046, "EPHEMERIS_TYPE": 0, "CLASSIFICATION_TYPE": "U", "NORAD_CAT_ID": 31861, "ELEMENT_SET_NO": 999, "REV_AT_EPOCH": 66608, "BSTAR": 0.0034105388, "MEAN_MOTION_DOT": 3.105e-05, "MEAN_MOTION_DDOT": 0}, "tle": {"line1": "1 31861U 99025CKB 25334.76455580  .00003105  00000+0  34105-2 0  9994", "line2": "2 31861 102.3423 165.0071 0496614 230.9853 124.6046 13.30200627666089"}}, "geometry": {"type": "Point", "coordinates": [-48.99486796754317, -71.06481166539749]}}, {"type": "Feature", "properties": {"norad_id": 31877, "name": "FENGYUN 1C DEB", "group": "fengyun-1c-debris", "lat": -69.38979670205524, "lon": 73.48709357456937, "alt_km": 500.0769651438304, "timestamp": "2025-12-05T11:32:56.302957+00:00", "meta": {"OBJECT_NAME": "FENGYUN 1C DEB", "OBJECT_ID": "1999-025CKC", "EPOCH": "2025-12-02T10:16:26.842944", "MEAN_MOTION": 15.01124585, "ECCENTRICITY": 0.0104713, "INCLINATION": 99.0053, "RA_OF_ASC_NODE": 45.0099, "ARG_OF_PERICENTER": 313.1217, "MEAN_ANOMALY": 46.128, "EPHEMERIS_TYPE": 0, "CLASSIFICATION_TYPE": "U", "NORAD_CAT_ID": 31877, "ELEMENT_SET_NO": 999, "REV_AT_EPOCH": 98887, "BSTAR": 0.00088700299, "MEAN_MOTION_DOT": 0.00012703, "MEAN_MOTION_DDOT": 0}, "tle": {"line1": "1 31877U 99025CKC 25336.42808846  .00012703  00000+0  88700-3 0  9998", "line2": "2 31877  99.0053  45.0099 0104713 313.1217  46.1280 15.01124585988878"}}, "geometry": {"type": "Point", "coordinates": [73.48709357456937, -69.38979670205524]}}, {"type": "Feature", "properties": {"norad_id": 31878, "name": "FENGYUN 1C DEB", "group": "fengyun-1c-debris", "lat": -16.696806910226734, "lon": 78.82813976307298, "alt_km": 591.5224120093771, "timestamp": "2025-12-05T11:32:56.302967+00:00", "meta": {"OBJECT_NAME": "FENGYUN 1C DEB", "OBJECT_ID": "1999-025CKD", "EPOCH": "2025-12-03T00:27:41.548032", "MEAN_MOTION": 14.85464766, "ECCENTRICITY": 0.00842743, "INCLINATION": 99.4399, "RA_OF_ASC_NODE": 258.7733, "ARG_OF_PERICENTER": 269.6043, "MEAN_ANOMALY": 89.551, "EPHEMERIS_TYPE": 0, "CLASSIFICATION_TYPE": "U", "NORAD_CAT_ID": 31878, "ELEMENT_SET_NO": 999, "REV_AT_EPOCH": 97949, "BSTAR": 0.0019397439, "MEAN_MOTION_DOT": 0.000178, "MEAN_MOTION_DDOT": 0}, "tle": {"line1": "1 31878U 99025CKD 25337.01923088  .00017800  00000+0  19397-2 0  9999", "line2": "2 31878  99.4399 258.7733 0084274 269.6043  89.5510 14.85464766979499"}}, "geometry": {"type": "Point", "coordinates": [78.82813976307298, -16.696806910226734]}}, {"type": "Feature", "properties": {"norad_id": 31879, "name": "FENGYUN 1C DEB", "group": "fengyun-1c-debris", "lat": 20.041790269045872, "lon": -146.63968783616858, "alt_km": 628.6332591114706, "timestamp": "2025-12-05T11:32:56.302977+00:00", "meta": {"OBJECT_NAME": "FENGYUN 1C DEB", "OBJECT_ID": "1999-025CKE", "EPOCH": "2025-12-03T21:10:46.899264", "MEAN_MOTION": 14.4286854, "ECCENTRICITY": 0.0210167, "INCLINATION": 99.7081, "RA_OF_ASC_NODE": 215.1207, "ARG_OF_PERICENTER": 62.3501, "MEAN_ANOMALY": 299.8845, "EPHEMERIS_TYPE": 0, "CLASSIFICATION_TYPE": "U", "NORAD_CAT_ID": 31879, "ELEMENT_SET_NO": 999, "REV_AT_EPOCH": 63082, "BSTAR": 0.00054525, "MEAN_MOTION_DOT": 2.313e-05, "MEAN_MOTION_DDOT": 0}, "tle": {"line1": "1 31879U 99025CKE 25337.88248726  .00002313  00000+0  54525-3 0  9990", "line2": "2 31879  99.7081 215.1207 0210167  62.3501 299.8845 14.42868540630822"}}, "geometry": {"type": "Point", "coordinates": [-146.63968783616858, 20.041790269045872]}}]}